ONEWEB-0207             
1 48242U 21031AJ  26194.21046086 -.00000152  00000+0 -44391-3 0  9999
2 48242  87.8970 284.5159 0002031  92.8448 267.2915 13.14501376251715
ONEWEB-0208             
1 48243U 21031AK  26193.81164980 -.00000107  00000+0 -32427-3 0  9996
2 48243  87.8971 284.6003 0002392 103.3867 256.7530 13.14502270251674
ONEWEB-0200             
1 48244U 21031AL  26194.30801127  .00000152  00000+0  37627-3 0  9998
2 48244  87.8980 284.4905 0002117  97.9154 262.2216 13.14501785251668
ONEWEB-0217             
1 48245U 21031AM  26194.24774700  .00000158  00000+0  39178-3 0  9997
2 48245  87.8977 284.5068 0002356 104.0821 256.0570 13.14502528251606
ONEWEB-0211             
1 48767U 21045A   26193.96168265 -.00000071  00000+0 -22053-3 0  9992
2 48767  87.8989 253.9418 0002608 107.2630 252.8786 13.16197446247834
ONEWEB-0223             
1 48768U 21045B   26193.67247124  .00001519  00000+0  40007-2 0  9997
2 48768  87.8987 254.1132 0002520 111.2164 248.9236 13.15540427247756
ONEWEB-0230             
1 48769U 21045C   26194.17635730 -.00000040  00000+0 -14146-3 0  9994
2 48769  87.8983 254.0257 0001885  94.7364 265.3982 13.15548264248085
ONEWEB-0237             
1 48770U 21045D   26194.16526208  .00000144  00000+0  34932-3 0  9992
2 48770  87.8983 254.0295 0002375  96.9346 263.2054 13.15548203247807
ONEWEB-0235             
1 48771U 21045E   26193.68354990  .00000102  00000+0  23770-3 0  9998
2 48771  87.8983 254.1145 0002125 139.6130 220.5159 13.15549613247732
ONEWEB-0242             
1 48772U 21045F   26193.98145955 -.00000035  00000+0 -12762-3 0  9997
2 48772  87.8996 254.0512 0001951 102.3113 257.8236 13.15548020247817
ONEWEB-0241             
1 48773U 21045G   26193.66453807 -.00000830  00000+0 -22391-2 0  9992
2 48773  87.8984 254.1294 0002355 103.4648 256.6745 13.15543741247689
ONEWEB-0243             
1 48774U 21045H   26194.15257949  .00000138  00000+0  33304-3 0  9993
2 48774  87.8984 254.0454 0001785 111.4478 248.6843 13.15550380247770
ONEWEB-0222             
1 48775U 21045J   26193.67959773  .00000048  00000+0  94351-4 0  9994
2 48775  87.8989 254.1096 0002224 105.3870 254.7506 13.15547028247753
ONEWEB-0244             
1 48776U 21045K   26193.70575203  .00000116  00000+0  27524-3 0  9994
2 48776  87.9001 254.0998 0002020 104.1286 256.0069 13.15548501248322
ONEWEB-0247             
1 48777U 21045L   26193.70258188  .00000173  00000+0  42657-3 0  9992
2 48777  87.8984 254.1294 0002029 122.6943 237.4383 13.15548626247763
ONEWEB-0245             
1 48778U 21045M   26193.69781870  .00000054  00000+0  10843-3 0  9990
2 48778  87.8986 254.1129 0002143 105.5921 254.5446 13.15549123247736
