{"fetched_at":"2026-07-13T18:16:31.793Z","source":"https://celestrak.org/NORAD/elements/gp.php?GROUP=oneweb&FORMAT=JSON","constellation":"oneweb","records":[{"OBJECT_NAME":"ONEWEB-0207","OBJECT_ID":"2021-031AJ","EPOCH":"2026-07-13T05:03:03.818304","CLASSIFICATION_TYPE":"U","MEAN_MOTION":13.14501376,"ECCENTRICITY":0.00020315,"INCLINATION":87.897,"RA_OF_ASC_NODE":284.5159,"ARG_OF_PERICENTER":92.8448,"MEAN_ANOMALY":267.2915,"EPHEMERIS_TYPE":0,"NORAD_CAT_ID":48242,"ELEMENT_SET_NO":999,"REV_AT_EPOCH":25171,"BSTAR":-0.00044391221,"MEAN_MOTION_DOT":-0.00000152,"MEAN_MOTION_DDOT":0},{"OBJECT_NAME":"ONEWEB-0208","OBJECT_ID":"2021-031AK","EPOCH":"2026-07-12T19:28:46.542720","CLASSIFICATION_TYPE":"U","MEAN_MOTION":13.1450227,"ECCENTRICITY":0.00023929,"INCLINATION":87.8971,"RA_OF_ASC_NODE":284.6003,"ARG_OF_PERICENTER":103.3867,"MEAN_ANOMALY":256.753,"EPHEMERIS_TYPE":0,"NORAD_CAT_ID":48243,"ELEMENT_SET_NO":999,"REV_AT_EPOCH":25167,"BSTAR":-0.00032427043,"MEAN_MOTION_DOT":-0.00000107,"MEAN_MOTION_DDOT":0},{"OBJECT_NAME":"ONEWEB-0200","OBJECT_ID":"2021-031AL","EPOCH":"2026-07-13T07:23:32.173728","CLASSIFICATION_TYPE":"U","MEAN_MOTION":13.14501785,"ECCENTRICITY":0.00021174,"INCLINATION":87.898,"RA_OF_ASC_NODE":284.4905,"ARG_OF_PERICENTER":97.9154,"MEAN_ANOMALY":262.2216,"EPHEMERIS_TYPE":0,"NORAD_CAT_ID":48244,"ELEMENT_SET_NO":999,"REV_AT_EPOCH":25166,"BSTAR":0.00037627299,"MEAN_MOTION_DOT":0.00000152,"MEAN_MOTION_DDOT":0},{"OBJECT_NAME":"ONEWEB-0217","OBJECT_ID":"2021-031AM","EPOCH":"2026-07-13T05:56:45.340800","CLASSIFICATION_TYPE":"U","MEAN_MOTION":13.14502528,"ECCENTRICITY":0.00023562,"INCLINATION":87.8977,"RA_OF_ASC_NODE":284.5068,"ARG_OF_PERICENTER":104.0821,"MEAN_ANOMALY":256.057,"EPHEMERIS_TYPE":0,"NORAD_CAT_ID":48245,"ELEMENT_SET_NO":999,"REV_AT_EPOCH":25160,"BSTAR":0.00039178043,"MEAN_MOTION_DOT":0.00000158,"MEAN_MOTION_DDOT":0},{"OBJECT_NAME":"ONEWEB-0211","OBJECT_ID":"2021-045A","EPOCH":"2026-07-12T23:04:49.380960","CLASSIFICATION_TYPE":"U","MEAN_MOTION":13.16197446,"ECCENTRICITY":0.00026085,"INCLINATION":87.8989,"RA_OF_ASC_NODE":253.9418,"ARG_OF_PERICENTER":107.263,"MEAN_ANOMALY":252.8786,"EPHEMERIS_TYPE":0,"NORAD_CAT_ID":48767,"ELEMENT_SET_NO":999,"REV_AT_EPOCH":24783,"BSTAR":-0.00022053467,"MEAN_MOTION_DOT":-7.1e-7,"MEAN_MOTION_DDOT":0},{"OBJECT_NAME":"ONEWEB-0223","OBJECT_ID":"2021-045B","EPOCH":"2026-07-12T16:08:21.515136","CLASSIFICATION_TYPE":"U","MEAN_MOTION":13.15540427,"ECCENTRICITY":0.00025202,"INCLINATION":87.8987,"RA_OF_ASC_NODE":254.1132,"ARG_OF_PERICENTER":111.2164,"MEAN_ANOMALY":248.9236,"EPHEMERIS_TYPE":0,"NORAD_CAT_ID":48768,"ELEMENT_SET_NO":999,"REV_AT_EPOCH":24775,"BSTAR":0.0040006957,"MEAN_MOTION_DOT":0.00001519,"MEAN_MOTION_DDOT":0},{"OBJECT_NAME":"ONEWEB-0230","OBJECT_ID":"2021-045C","EPOCH":"2026-07-13T04:13:57.270720","CLASSIFICATION_TYPE":"U","MEAN_MOTION":13.15548264,"ECCENTRICITY":0.00018853,"INCLINATION":87.8983,"RA_OF_ASC_NODE":254.0257,"ARG_OF_PERICENTER":94.7364,"MEAN_ANOMALY":265.3982,"EPHEMERIS_TYPE":0,"NORAD_CAT_ID":48769,"ELEMENT_SET_NO":999,"REV_AT_EPOCH":24808,"BSTAR":-0.0001414605,"MEAN_MOTION_DOT":-4e-7,"MEAN_MOTION_DDOT":0},{"OBJECT_NAME":"ONEWEB-0237","OBJECT_ID":"2021-045D","EPOCH":"2026-07-13T03:57:58.643712","CLASSIFICATION_TYPE":"U","MEAN_MOTION":13.15548203,"ECCENTRICITY":0.00023754,"INCLINATION":87.8983,"RA_OF_ASC_NODE":254.0295,"ARG_OF_PERICENTER":96.9346,"MEAN_ANOMALY":263.2054,"EPHEMERIS_TYPE":0,"NORAD_CAT_ID":48770,"ELEMENT_SET_NO":999,"REV_AT_EPOCH":24780,"BSTAR":0.00034931718,"MEAN_MOTION_DOT":0.00000144,"MEAN_MOTION_DDOT":0},{"OBJECT_NAME":"ONEWEB-0235","OBJECT_ID":"2021-045E","EPOCH":"2026-07-12T16:24:18.711360","CLASSIFICATION_TYPE":"U","MEAN_MOTION":13.15549613,"ECCENTRICITY":0.00021258,"INCLINATION":87.8983,"RA_OF_ASC_NODE":254.1145,"ARG_OF_PERICENTER":139.613,"MEAN_ANOMALY":220.5159,"EPHEMERIS_TYPE":0,"NORAD_CAT_ID":48771,"ELEMENT_SET_NO":999,"REV_AT_EPOCH":24773,"BSTAR":0.00023769995,"MEAN_MOTION_DOT":0.00000102,"MEAN_MOTION_DDOT":0},{"OBJECT_NAME":"ONEWEB-0242","OBJECT_ID":"2021-045F","EPOCH":"2026-07-12T23:33:18.105120","CLASSIFICATION_TYPE":"U","MEAN_MOTION":13.1554802,"ECCENTRICITY":0.0001951,"INCLINATION":87.8996,"RA_OF_ASC_NODE":254.0512,"ARG_OF_PERICENTER":102.3113,"MEAN_ANOMALY":257.8236,"EPHEMERIS_TYPE":0,"NORAD_CAT_ID":48772,"ELEMENT_SET_NO":999,"REV_AT_EPOCH":24781,"BSTAR":-0.0001276206,"MEAN_MOTION_DOT":-3.5e-7,"MEAN_MOTION_DDOT":0},{"OBJECT_NAME":"ONEWEB-0241","OBJECT_ID":"2021-045G","EPOCH":"2026-07-12T15:56:56.089248","CLASSIFICATION_TYPE":"U","MEAN_MOTION":13.15543741,"ECCENTRICITY":0.00023556,"INCLINATION":87.8984,"RA_OF_ASC_NODE":254.1294,"ARG_OF_PERICENTER":103.4648,"MEAN_ANOMALY":256.6745,"EPHEMERIS_TYPE":0,"NORAD_CAT_ID":48773,"ELEMENT_SET_NO":999,"REV_AT_EPOCH":24768,"BSTAR":-0.0022391136,"MEAN_MOTION_DOT":-0.0000083,"MEAN_MOTION_DDOT":0},{"OBJECT_NAME":"ONEWEB-0243","OBJECT_ID":"2021-045H","EPOCH":"2026-07-13T03:39:42.867936","CLASSIFICATION_TYPE":"U","MEAN_MOTION":13.1555038,"ECCENTRICITY":0.00017852,"INCLINATION":87.8984,"RA_OF_ASC_NODE":254.0454,"ARG_OF_PERICENTER":111.4478,"MEAN_ANOMALY":248.6843,"EPHEMERIS_TYPE":0,"NORAD_CAT_ID":48774,"ELEMENT_SET_NO":999,"REV_AT_EPOCH":24777,"BSTAR":0.00033303667,"MEAN_MOTION_DOT":0.00000138,"MEAN_MOTION_DDOT":0},{"OBJECT_NAME":"ONEWEB-0222","OBJECT_ID":"2021-045J","EPOCH":"2026-07-12T16:18:37.243872","CLASSIFICATION_TYPE":"U","MEAN_MOTION":13.15547028,"ECCENTRICITY":0.00022248,"INCLINATION":87.8989,"RA_OF_ASC_NODE":254.1096,"ARG_OF_PERICENTER":105.387,"MEAN_ANOMALY":254.7506,"EPHEMERIS_TYPE":0,"NORAD_CAT_ID":48775,"ELEMENT_SET_NO":999,"REV_AT_EPOCH":24775,"BSTAR":0.000094351086,"MEAN_MOTION_DOT":4.8e-7,"MEAN_MOTION_DDOT":0},{"OBJECT_NAME":"ONEWEB-0244","OBJECT_ID":"2021-045K","EPOCH":"2026-07-12T16:56:16.975392","CLASSIFICATION_TYPE":"U","MEAN_MOTION":13.15548501,"ECCENTRICITY":0.00020207,"INCLINATION":87.9001,"RA_OF_ASC_NODE":254.0998,"ARG_OF_PERICENTER":104.1286,"MEAN_ANOMALY":256.0069,"EPHEMERIS_TYPE":0,"NORAD_CAT_ID":48776,"ELEMENT_SET_NO":999,"REV_AT_EPOCH":24832,"BSTAR":0.00027524049,"MEAN_MOTION_DOT":0.00000116,"MEAN_MOTION_DDOT":0},{"OBJECT_NAME":"ONEWEB-0247","OBJECT_ID":"2021-045L","EPOCH":"2026-07-12T16:51:43.074432","CLASSIFICATION_TYPE":"U","MEAN_MOTION":13.15548626,"ECCENTRICITY":0.00020293,"INCLINATION":87.8984,"RA_OF_ASC_NODE":254.1294,"ARG_OF_PERICENTER":122.6943,"MEAN_ANOMALY":237.4383,"EPHEMERIS_TYPE":0,"NORAD_CAT_ID":48777,"ELEMENT_SET_NO":999,"REV_AT_EPOCH":24776,"BSTAR":0.00042656874,"MEAN_MOTION_DOT":0.00000173,"MEAN_MOTION_DDOT":0},{"OBJECT_NAME":"ONEWEB-0245","OBJECT_ID":"2021-045M","EPOCH":"2026-07-12T16:44:51.535680","CLASSIFICATION_TYPE":"U","MEAN_MOTION":13.15549123,"ECCENTRICITY":0.00021433,"INCLINATION":87.8986,"RA_OF_ASC_NODE":254.1129,"ARG_OF_PERICENTER":105.5921,"MEAN_ANOMALY":254.5446,"EPHEMERIS_TYPE":0,"NORAD_CAT_ID":48778,"ELEMENT_SET_NO":999,"REV_AT_EPOCH":24773,"BSTAR":0.00010843425,"MEAN_MOTION_DOT":5.4e-7,"MEAN_MOTION_DDOT":0}]}
